{"type": "FeatureCollection", "features": [ {"type": "Feature", "properties": {"norad_id": 37867, "name": "COSMOS 2476 (744)", "group": "gnss", "lat": 57.54301123348365, "lon": 125.93676933568014, "alt_km": 19183.154828332794, "timestamp": "2025-12-09T11:33:55.041107+00:00", "meta": {"OBJECT_NAME": "COSMOS 2476 (744)", "OBJECT_ID": "2011-064A", "EPOCH": "2025-12-08T12:40:16.683168", "MEAN_MOTION": 2.131013, "ECCENTRICITY": 0.00241182, "INCLINATION": 65.16, "RA_OF_ASC_NODE": 79.314, "ARG_OF_PERICENTER": 233.9995, "MEAN_ANOMALY": 182.6426, "EPHEMERIS_TYPE": 0, "CLASSIFICATION_TYPE": "U", "NORAD_CAT_ID": 37867, "ELEMENT_SET_NO": 999, "REV_AT_EPOCH": 10970, "BSTAR": 0, "MEAN_MOTION_DOT": -1.2e-07, "MEAN_MOTION_DDOT": 0}, "tle": {"line1": "1 37867U 11064A   25342.52797087 -.00000012  00000+0  00000+0 0  9996", "line2": "2 37867  65.1600  79.3140 0024118 233.9995 182.6426  2.13101300109708"}}, "geometry": {"type": "Point", "coordinates": [125.93676933568014, 57.54301123348365]}}, {"type": "Feature", "properties": {"norad_id": 37868, "name": "COSMOS 2477 (745)", "group": "gnss", "lat": -58.20466798365293, "lon": -52.40431180759959, "alt_km": 19083.911222911986, "timestamp": "2025-12-09T11:33:55.041119+00:00", "meta": {"OBJECT_NAME": "COSMOS 2477 (745)", "OBJECT_ID": "2011-064B", "EPOCH": "2025-12-08T06:12:22.664160", "MEAN_MOTION": 2.13102704, "ECCENTRICITY": 0.0021182, "INCLINATION": 65.1663, "RA_OF_ASC_NODE": 79.4007, "ARG_OF_PERICENTER": 234.576, "MEAN_ANOMALY": 156.3219, "EPHEMERIS_TYPE": 0, "CLASSIFICATION_TYPE": "U", "NORAD_CAT_ID": 37868, "ELEMENT_SET_NO": 999, "REV_AT_EPOCH": 10969, "BSTAR": 0, "MEAN_MOTION_DOT": -1.1e-07, "MEAN_MOTION_DDOT": 0}, "tle": {"line1": "1 37868U 11064B   25342.25859565 -.00000011  00000+0  00000+0 0  9996", "line2": "2 37868  65.1663  79.4007 0021182 234.5760 156.3219  2.13102704109691"}}, "geometry": {"type": "Point", "coordinates": [-52.40431180759959, -58.20466798365293]}}, {"type": "Feature", "properties": {"norad_id": 37869, "name": "COSMOS 2475 (743)", "group": "gnss", "lat": -22.70435883360934, "lon": -89.46428883874229, "alt_km": 19084.60222184607, "timestamp": "2025-12-09T11:33:55.041131+00:00", "meta": {"OBJECT_NAME": "COSMOS 2475 (743)", "OBJECT_ID": "2011-064C", "EPOCH": "2025-12-09T06:01:19.560576", "MEAN_MOTION": 2.13101305, "ECCENTRICITY": 0.002608, "INCLINATION": 65.1742, "RA_OF_ASC_NODE": 79.3871, "ARG_OF_PERICENTER": 248.2681, "MEAN_ANOMALY": 139.87, "EPHEMERIS_TYPE": 0, "CLASSIFICATION_TYPE": "U", "NORAD_CAT_ID": 37869, "ELEMENT_SET_NO": 999, "REV_AT_EPOCH": 10972, "BSTAR": 0, "MEAN_MOTION_DOT": -1.3e-07, "MEAN_MOTION_DDOT": 0}, "tle": {"line1": "1 37869U 11064C   25343.25092084 -.00000013  00000+0  00000+0 0  9995", "line2": "2 37869  65.1742  79.3871 0026080 248.2681 139.8700  2.13101305109725"}}, "geometry": {"type": "Point", "coordinates": [-89.46428883874229, -22.70435883360934]}}, {"type": "Feature", "properties": {"norad_id": 37948, "name": "BEIDOU-2 IGSO-5 (C10)", "group": "gnss", "lat": 44.43183984085049, "lon": -24.39195890491562, "alt_km": 36184.107868478335, "timestamp": "2025-12-09T11:33:55.041151+00:00", "meta": {"OBJECT_NAME": "BEIDOU-2 IGSO-5 (C10)", "OBJECT_ID": "2011-073A", "EPOCH": "2025-12-07T19:12:14.882400", "MEAN_MOTION": 1.00291658, "ECCENTRICITY": 0.01104068, "INCLINATION": 48.0298, "RA_OF_ASC_NODE": 273.9181, "ARG_OF_PERICENTER": 222.1784, "MEAN_ANOMALY": 321.4594, "EPHEMERIS_TYPE": 0, "CLASSIFICATION_TYPE": "U", "NORAD_CAT_ID": 37948, "ELEMENT_SET_NO": 999, "REV_AT_EPOCH": 5121, "BSTAR": 0, "MEAN_MOTION_DOT": -1.91e-06, "MEAN_MOTION_DDOT": 0}, "tle": {"line1": "1 37948U 11073A   25341.80017225 -.00000191  00000+0  00000+0 0  9993", "line2": "2 37948  48.0298 273.9181 0110406 222.1784 321.4594  1.00291658 51212"}}, "geometry": {"type": "Point", "coordinates": [-24.39195890491562, 44.43183984085049]}}, {"type": "Feature", "properties": {"norad_id": 37951, "name": "LUCH 5A (SDCM/PRN 140)", "group": "gnss", "lat": -2.4796003352931386, "lon": 59.17728679962505, "alt_km": 35809.130055893846, "timestamp": "2025-12-09T11:33:55.041164+00:00", "meta": {"OBJECT_NAME": "LUCH 5A (SDCM/PRN 140)", "OBJECT_ID": "2011-074B", "EPOCH": "2025-12-09T02:22:35.931072", "MEAN_MOTION": 1.00274193, "ECCENTRICITY": 0.000575, "INCLINATION": 8.2708, "RA_OF_ASC_NODE": 76.638, "ARG_OF_PERICENTER": 178.4786, "MEAN_ANOMALY": 25.6578, "EPHEMERIS_TYPE": 0, "CLASSIFICATION_TYPE": "U", "NORAD_CAT_ID": 37951, "ELEMENT_SET_NO": 999, "REV_AT_EPOCH": 5114, "BSTAR": 0, "MEAN_MOTION_DOT": -4.8e-07, "MEAN_MOTION_DDOT": 0}, "tle": {"line1": "1 37951U 11074B   25343.09902698 -.00000048  00000+0  00000+0 0  9999", "line2": "2 37951   8.2708  76.6380 0005750 178.4786  25.6578  1.00274193 51141"}}, "geometry": {"type": "Point", "coordinates": [59.17728679962505, -2.4796003352931386]}}, {"type": "Feature", "properties": {"norad_id": 38091, "name": "BEIDOU-2 G5 (C05)", "group": "gnss", "lat": -2.698357289659921, "lon": -49.30134568195043, "alt_km": 35734.4971543389, "timestamp": "2025-12-09T11:33:55.041178+00:00", "meta": {"OBJECT_NAME": "BEIDOU-2 G5 (C05)", "OBJECT_ID": "2012-008A", "EPOCH": "2025-12-09T03:34:44.022432", "MEAN_MOTION": 1.00274149, "ECCENTRICITY": 0.001252, "INCLINATION": 3.1, "RA_OF_ASC_NODE": 70.7096, "ARG_OF_PERICENTER": 226.0989, "MEAN_ANOMALY": 253.7636, "EPHEMERIS_TYPE": 0, "CLASSIFICATION_TYPE": "U", "NORAD_CAT_ID": 38091, "ELEMENT_SET_NO": 999, "REV_AT_EPOCH": 5046, "BSTAR": 0, "MEAN_MOTION_DOT": 5.8e-07, "MEAN_MOTION_DDOT": 0}, "tle": {"line1": "1 38091U 12008A   25343.14912063  .00000058  00000+0  00000+0 0  9996", "line2": "2 38091   3.1000  70.7096 0012520 226.0989 253.7636  1.00274149 50467"}}, "geometry": {"type": "Point", "coordinates": [-49.30134568195043, -2.698357289659921]}}, {"type": "Feature", "properties": {"norad_id": 38250, "name": "BEIDOU-2 M3 (C11)", "group": "gnss", "lat": -51.97863451996659, "lon": -168.8442075483515, "alt_km": 21470.335364197475, "timestamp": "2025-12-09T11:33:55.041190+00:00", "meta": {"OBJECT_NAME": "BEIDOU-2 M3 (C11)", "OBJECT_ID": "2012-018A", "EPOCH": "2025-12-09T02:31:53.120352", "MEAN_MOTION": 1.86229518, "ECCENTRICITY": 0.0024485, "INCLINATION": 55.923, "RA_OF_ASC_NODE": 311.2799, "ARG_OF_PERICENTER": 273.6556, "MEAN_ANOMALY": 86.0527, "EPHEMERIS_TYPE": 0, "CLASSIFICATION_TYPE": "U", "NORAD_CAT_ID": 38250, "ELEMENT_SET_NO": 999, "REV_AT_EPOCH": 9240, "BSTAR": 0, "MEAN_MOTION_DOT": -7.5e-07, "MEAN_MOTION_DDOT": 0}, "tle": {"line1": "1 38250U 12018A   25343.10547593 -.00000075  00000+0  00000+0 0  9992", "line2": "2 38250  55.9230 311.2799 0024485 273.6556  86.0527  1.86229518 92408"}}, "geometry": {"type": "Point", "coordinates": [-168.8442075483515, -51.97863451996659]}}, {"type": "Feature", "properties": {"norad_id": 38251, "name": "BEIDOU-2 M4 (C12)", "group": "gnss", "lat": -47.02922358756755, "lon": -96.31357535148639, "alt_km": 21492.722411976494, "timestamp": "2025-12-09T11:33:55.041201+00:00", "meta": {"OBJECT_NAME": "BEIDOU-2 M4 (C12)", "OBJECT_ID": "2012-018B", "EPOCH": "2025-12-09T00:54:01.935360", "MEAN_MOTION": 1.86229265, "ECCENTRICITY": 0.0015661, "INCLINATION": 55.8248, "RA_OF_ASC_NODE": 310.5114, "ARG_OF_PERICENTER": 276.7071, "MEAN_ANOMALY": 83.1029, "EPHEMERIS_TYPE": 0, "CLASSIFICATION_TYPE": "U", "NORAD_CAT_ID": 38251, "ELEMENT_SET_NO": 999, "REV_AT_EPOCH": 9240, "BSTAR": 0, "MEAN_MOTION_DOT": -7.4e-07, "MEAN_MOTION_DDOT": 0}, "tle": {"line1": "1 38251U 12018B   25343.03752240 -.00000074  00000+0  00000+0 0  9991", "line2": "2 38251  55.8248 310.5114 0015661 276.7071  83.1029  1.86229265 92406"}}, "geometry": {"type": "Point", "coordinates": [-96.31357535148639, -47.02922358756755]}}, {"type": "Feature", "properties": {"norad_id": 38652, "name": "SES-5 (EGNOS/PRN 136)", "group": "gnss", "lat": -0.06124410506806794, "lon": -103.06914422873227, "alt_km": 35776.887933503276, "timestamp": "2025-12-09T11:33:55.041215+00:00", "meta": {"OBJECT_NAME": "SES-5 (EGNOS/PRN 136)", "OBJECT_ID": "2012-036A", "EPOCH": "2025-12-09T03:19:30.478080", "MEAN_MOTION": 1.00272252, "ECCENTRICITY": 0.0002139, "INCLINATION": 0.0588, "RA_OF_ASC_NODE": 304.164, "ARG_OF_PERICENTER": 315.0796, "MEAN_ANOMALY": 233.7504, "EPHEMERIS_TYPE": 0, "CLASSIFICATION_TYPE": "U", "NORAD_CAT_ID": 38652, "ELEMENT_SET_NO": 999, "REV_AT_EPOCH": 4256, "BSTAR": 0, "MEAN_MOTION_DOT": 3.6e-07, "MEAN_MOTION_DDOT": 0}, "tle": {"line1": "1 38652U 12036A   25343.13854720  .00000036  00000+0  00000+0 0  9990", "line2": "2 38652   0.0588 304.1640 0002139 315.0796 233.7504  1.00272252 42563"}}, "geometry": {"type": "Point", "coordinates": [-103.06914422873227, -0.06124410506806794]}}, {"type": "Feature", "properties": {"norad_id": 38775, "name": "BEIDOU-2 M6 (C14)", "group": "gnss", "lat": 38.37686403227026, "lon": -142.5666885265833, "alt_km": 21549.072235038515, "timestamp": "2025-12-09T11:33:55.041227+00:00", "meta": {"OBJECT_NAME": "BEIDOU-2 M6 (C14)", "OBJECT_ID": "2012-050B", "EPOCH": "2025-12-08T05:04:33.479040", "MEAN_MOTION": 1.86230723, "ECCENTRICITY": 0.00110356, "INCLINATION": 56.3747, "RA_OF_ASC_NODE": 69.2178, "ARG_OF_PERICENTER": 345.3738, "MEAN_ANOMALY": 14.6151, "EPHEMERIS_TYPE": 0, "CLASSIFICATION_TYPE": "U", "NORAD_CAT_ID": 38775, "ELEMENT_SET_NO": 999, "REV_AT_EPOCH": 8975, "BSTAR": 0, "MEAN_MOTION_DOT": -4.4e-07, "MEAN_MOTION_DDOT": 0}, "tle": {"line1": "1 38775U 12050B   25342.21149860 -.00000044  00000+0  00000+0 0  9992", "line2": "2 38775  56.3747  69.2178 0011035 345.3738  14.6151  1.86230723 89759"}}, "geometry": {"type": "Point", "coordinates": [-142.5666885265833, 38.37686403227026]}}]}